{
  "type": "FeatureCollection",
  "features": [
    {
      "type": "Feature",
      "properties": {
        "norad_id": 34540,
        "name": "IRIDIUM 33 DEB",
        "group": "iridium-33-debris",
        "lat": -41.25116615081436,
        "lon": -52.835459371045026,
        "alt_km": 659.255950899731,
        "timestamp": "2025-12-06T14:35:37.511074+00:00",
        "meta_object_name": "IRIDIUM 33 DEB",
        "meta_object_id": "1997-051JH",
        "meta_epoch": "2025-12-05T16:47:20.617152",
        "meta_mean_motion": 14.75090008,
        "meta_eccentricity": 0.00152233,
        "meta_inclination": 86.3098,
        "meta_ra_of_asc_node": 310.8245,
        "meta_arg_of_pericenter": 184.7757,
        "meta_mean_anomaly": 352.3663,
        "meta_ephemeris_type": 0,
        "meta_classification_type": "U",
        "meta_norad_cat_id": 34540,
        "meta_element_set_no": 999,
        "meta_rev_at_epoch": 88917,
        "meta_bstar": 0.003042779,
        "meta_mean_motion_dot": 0.00020606,
        "meta_mean_motion_ddot": 0,
        "tle_line1": "1 34540U 97051JH  25339.69954418  .00020606  00000+0  30428-2 0  9998",
        "tle_line2": "2 34540  86.3098 310.8245 0015223 184.7757 352.3663 14.75090008889172"
      },
      "geometry": {
        "type": "Point",
        "coordinates": [
          -52.835459371045026,
          -41.25116615081436
        ]
      }
    },
    {
      "type": "Feature",
      "properties": {
        "norad_id": 34648,
        "name": "IRIDIUM 33 DEB",
        "group": "iridium-33-debris",
        "lat": 74.7421586830937,
        "lon": -62.20161896695981,
        "alt_km": 907.805218045668,
        "timestamp": "2025-12-06T14:35:37.511084+00:00",
        "meta_object_name": "IRIDIUM 33 DEB",
        "meta_object_id": "1997-051JZ",
        "meta_epoch": "2025-12-05T14:25:00.080832",
        "meta_mean_motion": 14.11133288,
        "meta_eccentricity": 0.01851844,
        "meta_inclination": 86.391,
        "meta_ra_of_asc_node": 284.8271,
        "meta_arg_of_pericenter": 321.0123,
        "meta_mean_anomaly": 37.7826,
        "meta_ephemeris_type": 0,
        "meta_classification_type": "U",
        "meta_norad_cat_id": 34648,
        "meta_element_set_no": 999,
        "meta_rev_at_epoch": 84860,
        "meta_bstar": 0.014281449,
        "meta_mean_motion_dot": 0.00030319,
        "meta_mean_motion_ddot": 0,
        "tle_line1": "1 34648U 97051JZ  25339.60069538  .00030319  00000+0  14281-1 0  9998",
        "tle_line2": "2 34648  86.3910 284.8271 0185184 321.0123  37.7826 14.11133288848606"
      },
      "geometry": {
        "type": "Point",
        "coordinates": [
          -62.20161896695981,
          74.7421586830937
        ]
      }
    },
    {
      "type": "Feature",
      "properties": {
        "norad_id": 34651,
        "name": "IRIDIUM 33 DEB",
        "group": "iridium-33-debris",
        "lat": 7.373830447242476,
        "lon": -37.29750611430041,
        "alt_km": 743.1481753831777,
        "timestamp": "2025-12-06T14:35:37.511094+00:00",
        "meta_object_name": "IRIDIUM 33 DEB",
        "meta_object_id": "1997-051KC",
        "meta_epoch": "2025-12-05T22:36:55.219392",
        "meta_mean_motion": 14.25637753,
        "meta_eccentricity": 0.01419171,
        "meta_inclination": 86.2829,
        "meta_ra_of_asc_node": 143.4677,
        "meta_arg_of_pericenter": 225.5331,
        "meta_mean_anomaly": 133.4185,
        "meta_ephemeris_type": 0,
        "meta_classification_type": "U",
        "meta_norad_cat_id": 34651,
        "meta_element_set_no": 999,
        "meta_rev_at_epoch": 85799,
        "meta_bstar": 0.005033692,
        "meta_mean_motion_dot": 0.00013284,
        "meta_mean_motion_ddot": 0,
        "tle_line1": "1 34651U 97051KC  25339.94230578  .00013284  00000+0  50337-2 0  9998",
        "tle_line2": "2 34651  86.2829 143.4677 0141917 225.5331 133.4185 14.25637753857998"
      },
      "geometry": {
        "type": "Point",
        "coordinates": [
          -37.29750611430041,
          7.373830447242476
        ]
      }
    },
    {
      "type": "Feature",
      "properties": {
        "norad_id": 34652,
        "name": "IRIDIUM 33 DEB",
        "group": "iridium-33-debris",
        "lat": 34.5789199424406,
        "lon": 160.19671404735058,
        "alt_km": 703.4752253082979,
        "timestamp": "2025-12-06T14:35:37.511106+00:00",
        "meta_object_name": "IRIDIUM 33 DEB",
        "meta_object_id": "1997-051KD",
        "meta_epoch": "2025-12-05T06:47:28.910400",
        "meta_mean_motion": 14.6194715,
        "meta_eccentricity": 0.00267279,
        "meta_inclination": 86.3306,
        "meta_ra_of_asc_node": 343.3218,
        "meta_arg_of_pericenter": 325.0807,
        "meta_mean_anomaly": 50.6373,
        "meta_ephemeris_type": 0,
        "meta_classification_type": "U",
        "meta_norad_cat_id": 34652,
        "meta_element_set_no": 999,
        "meta_rev_at_epoch": 88375,
        "meta_bstar": 0.0018811698,
        "meta_mean_motion_dot": 9.492e-05,
        "meta_mean_motion_ddot": 0,
        "tle_line1": "1 34652U 97051KD  25339.28297350  .00009492  00000+0  18812-2 0  9995",
        "tle_line2": "2 34652  86.3306 343.3218 0026727 325.0807  50.6373 14.61947150883754"
      },
      "geometry": {
        "type": "Point",
        "coordinates": [
          160.19671404735058,
          34.5789199424406
        ]
      }
    },
    {
      "type": "Feature",
      "properties": {
        "norad_id": 34690,
        "name": "IRIDIUM 33 DEB",
        "group": "iridium-33-debris",
        "lat": 18.74822608467884,
        "lon": -141.5751189508525,
        "alt_km": 712.869666875662,
        "timestamp": "2025-12-06T14:35:37.511148+00:00",
        "meta_object_name": "IRIDIUM 33 DEB",
        "meta_object_id": "1997-051KM",
        "meta_epoch": "2025-12-05T05:07:04.785312",
        "meta_mean_motion": 14.55051508,
        "meta_eccentricity": 0.00116101,
        "meta_inclination": 86.3789,
        "meta_ra_of_asc_node": 40.2624,
        "meta_arg_of_pericenter": 51.712,
        "meta_mean_anomaly": 7.605,
        "meta_ephemeris_type": 0,
        "meta_classification_type": "U",
        "meta_norad_cat_id": 34690,
        "meta_element_set_no": 999,
        "meta_rev_at_epoch": 87985,
        "meta_bstar": 0.00091494528,
        "meta_mean_motion_dot": 3.967e-05,
        "meta_mean_motion_ddot": 0,
        "tle_line1": "1 34690U 97051KM  25339.21324983  .00003967  00000+0  91495-3 0  9993",
        "tle_line2": "2 34690  86.3789  40.2624 0011610  51.7120   7.6050 14.55051508879857"
      },
      "geometry": {
        "type": "Point",
        "coordinates": [
          -141.5751189508525,
          18.74822608467884
        ]
      }
    },
    {
      "type": "Feature",
      "properties": {
        "norad_id": 34693,
        "name": "IRIDIUM 33 DEB",
        "group": "iridium-33-debris",
        "lat": 67.48087286554984,
        "lon": -44.17127160339578,
        "alt_km": 471.0535981792691,
        "timestamp": "2025-12-06T14:35:37.511167+00:00",
        "meta_object_name": "IRIDIUM 33 DEB",
        "meta_object_id": "1997-051KQ",
        "meta_epoch": "2025-12-05T16:30:41.219712",
        "meta_mean_motion": 15.25520042,
        "meta_eccentricity": 0.00157455,
        "meta_inclination": 86.3065,
        "meta_ra_of_asc_node": 307.3204,
        "meta_arg_of_pericenter": 63.4538,
        "meta_mean_anomaly": 354.1947,
        "meta_ephemeris_type": 0,
        "meta_classification_type": "U",
        "meta_norad_cat_id": 34693,
        "meta_element_set_no": 999,
        "meta_rev_at_epoch": 88807,
        "meta_bstar": 0.0071412513,
        "meta_mean_motion_dot": 0.00185757,
        "meta_mean_motion_ddot": 0,
        "tle_line1": "1 34693U 97051KQ  25339.68797708  .00185757  00000+0  71413-2 0  9991",
        "tle_line2": "2 34693  86.3065 307.3204 0015745  63.4538 354.1947 15.25520042888075"
      },
      "geometry": {
        "type": "Point",
        "coordinates": [
          -44.17127160339578,
          67.48087286554984
        ]
      }
    },
    {
      "type": "Feature",
      "properties": {
        "norad_id": 34696,
        "name": "IRIDIUM 33 DEB",
        "group": "iridium-33-debris",
        "lat": 82.29502455529254,
        "lon": 59.91641459978444,
        "alt_km": 684.4626102827915,
        "timestamp": "2025-12-06T14:35:37.511179+00:00",
        "meta_object_name": "IRIDIUM 33 DEB",
        "meta_object_id": "1997-051KT",
        "meta_epoch": "2025-12-06T02:52:04.787040",
        "meta_mean_motion": 14.64542505,
        "meta_eccentricity": 0.00743833,
        "meta_inclination": 86.1861,
        "meta_ra_of_asc_node": 30.6015,
        "meta_arg_of_pericenter": 190.2321,
        "meta_mean_anomaly": 199.6062,
        "meta_ephemeris_type": 0,
        "meta_classification_type": "U",
        "meta_norad_cat_id": 34696,
        "meta_element_set_no": 999,
        "meta_rev_at_epoch": 86576,
        "meta_bstar": 0.0082420437,
        "meta_mean_motion_dot": 0.00045777,
        "meta_mean_motion_ddot": 0,
        "tle_line1": "1 34696U 97051KT  25340.11949985  .00045777  00000+0  82420-2 0  9997",
        "tle_line2": "2 34696  86.1861  30.6015 0074383 190.2321 199.6062 14.64542505865769"
      },
      "geometry": {
        "type": "Point",
        "coordinates": [
          59.91641459978444,
          82.29502455529254
        ]
      }
    }
  ]
}